OBJECT_NAME,OBJECT_ID,EPOCH,MEAN_MOTION,ECCENTRICITY,INCLINATION,RA_OF_ASC_NODE,ARG_OF_PERICENTER,MEAN_ANOMALY,EPHEMERIS_TYPE,CLASSIFICATION_TYPE,NORAD_CAT_ID,ELEMENT_SET_NO,REV_AT_EPOCH,BSTAR,MEAN_MOTION_DOT,MEAN_MOTION_DDOT
POLYITAN-1,2014-033AJ,2026-07-18T00:58:49.731168,15.34281566,.00076502,98.0931,228.2449,55.8959,304.3007,0,U,40042,999,65832,.33244666E-3,.10956E-3,0
TIGRISAT,2014-033AK,2026-07-18T09:01:41.702304,14.85254459,.00483621,97.7869,348.6813,333.7651,26.1115,0,U,40043,999,65025,.85548866E-4,.693E-5,0
AEROCUBE 6A,2014-033AM,2026-07-18T09:54:51.969600,14.98364278,.00361495,97.7261,6.0382,269.8271,89.8809,0,U,40045,999,65129,.27586452E-3,.327E-4,0
AEROCUBE 6B,2014-033AN,2026-07-17T23:38:03.776352,14.99812735,.0038128,97.7206,5.4660,260.2360,99.4557,0,U,40046,999,65137,.21134953E-3,.2592E-4,0
CANX-4,2014-034C,2026-07-18T05:23:23.696448,14.81314034,.00113675,98.3078,75.6714,271.9633,88.0277,0,U,40055,999,64912,.56502591E-4,.384E-5,0
CANX-5,2014-034D,2026-07-18T15:04:13.643616,14.81331659,.00113734,98.3080,76.1348,270.7559,89.2349,0,U,40056,999,63999,.53854726E-4,.363E-5,0
UKUBE-1,2014-037F,2026-07-18T07:14:20.651424,15.13977056,.00031905,98.4246,205.8544,82.4039,277.7553,0,U,40074,999,65326,.25747607E-3,.4593E-4,0
BRITE-PL2 (HEWELIUSZ),2014-049B,2026-07-18T07:15:38.259360,14.94691030,.00140322,97.9120,311.5482,12.0848,348.0705,0,U,40119,999,64609,.59605395E-4,.588E-5,0
AEROCUBE 5C,2015-058B,2026-07-18T06:46:02.089632,14.91588011,.01325485,64.7649,165.8439,51.2806,310.0068,0,U,40965,999,37029,.16392805E-3,.177E-4,0
AEROCUBE 7,2015-058C,2026-07-18T14:09:29.777472,14.95932772,.01222966,64.7617,146.4389,49.4620,311.7067,0,U,40966,999,37065,.21398261E-3,.2608E-4,0
FOX-1A (AO-85),2015-058D,2026-07-18T08:09:07.716096,14.91099552,.01326239,64.7725,182.1599,44.6185,316.5509,0,U,40967,999,11821,.15554856E-3,.1647E-4,0
SINOD-D 1,2015-058E,2026-07-18T07:07:22.827072,14.96105749,.01213214,64.7739,161.4732,40.9859,320.0295,0,U,40968,999,12131,.22386734E-3,.2745E-4,0
SNAP-3 ALICE,2015-058G,2026-07-17T20:46:31.897344,15.67750448,.00251925,64.7499,357.2559,346.5767,13.4709,0,U,40970,999,12168,.85474217E-3,.96808E-3,0
LMRST-SAT,2015-058H,2026-07-18T08:52:54.320160,14.90714583,.01341599,64.7733,178.4631,46.6043,314.6146,0,U,40971,999,11820,.15279271E-3,.1603E-4,0
SNAP-3 EDDIE,2015-058J,2026-07-17T19:56:24.016128,15.69169555,.00263573,64.7410,347.8654,349.2904,10.7681,0,U,40972,999,12382,.85238224E-3,.102609E-2,0
PROPCUBE 3,2015-058K,2026-07-18T07:53:16.121184,14.94431129,.01260181,64.7677,155.2241,47.8120,313.3610,0,U,40973,999,11945,.19599495E-3,.2295E-4,0
BISONSAT,2015-058L,2026-07-18T14:51:05.960736,15.16985663,.00824536,64.7580,71.9539,34.4036,326.2388,0,U,40974,999,12038,.33163478E-3,.6973E-4,0
SNAP-3 JIMI,2015-058M,2026-07-18T04:57:53.498016,15.02634025,.01080794,64.7647,121.6022,43.1716,317.7811,0,U,40975,999,11888,.25950549E-3,.3747E-4,0
PROPCUBE 1 (FLORA),2015-058N,2026-07-18T06:52:35.962176,14.89337354,.013271,64.7717,198.8406,48.9109,312.3373,0,U,40976,999,12089,.13603607E-3,.1347E-4,0
SINOD-D 3,2015-058P,2026-07-18T15:11:35.601216,14.94190037,.01213555,64.7709,177.6086,45.8119,315.2888,0,U,40977,999,11945,.19245215E-3,.2208E-4,0
RAVAN,2016-067B,2026-07-18T05:29:42.961344,15.57683574,.0002633,97.9830,92.4570,202.8741,157.2396,0,U,41849,999,53252,.45990712E-3,.34025E-3,0
CELTEE 1,2016-067C,2026-07-18T14:41:07.237248,15.19959377,.00024019,98.0628,68.3217,105.5139,254.6359,0,U,41850,999,53065,.11748349E-3,.2449E-4,0
OPTICUBE 04,2016-067D,2026-07-18T02:20:25.600128,15.09778428,.00159555,98.0673,52.9918,18.5232,341.6573,0,U,41851,999,52983,.61748732E-4,.928E-5,0
AEROCUBE 8D,2016-067E,2026-07-18T14:14:16.119168,15.24796864,.00043876,98.0633,72.1560,48.3639,311.7972,0,U,41852,999,53085,.15675529E-3,.3806E-4,0
AEROCUBE 8C,2016-067F,2026-07-18T03:41:22.764480,15.25047561,.00039644,98.0510,68.8712,329.8363,30.2644,0,U,41853,999,53078,.15149638E-3,.3703E-4,0
CORVUS BC2,2017-042X,2026-07-18T09:57:31.965984,15.06464802,.00131235,97.4094,359.5594,12.1105,348.0435,0,U,42846,999,49176,.84156711E-4,.1184E-4,0
CORVUS BC1,2017-042Y,2026-07-18T08:09:11.715552,15.06629317,.00113246,97.4125,0.3212,348.7981,11.2993,0,U,42847,999,49178,.11517625E-3,.1649E-4,0
MAKERSAT 0,2017-073D,2026-07-18T14:02:09.304224,15.33085965,.0105621,97.4572,82.3624,160.2361,200.3022,0,U,43016,999,47127,.27996335E-3,.10616E-3,0
SIRION PATHFINDER-2,2018-099B,2026-07-18T13:28:28.492896,15.14791883,.00088234,97.4233,247.8754,179.5696,180.5545,0,U,43759,999,41737,.12207245E-3,.2202E-4,0
CORVUS BC4,2018-099K,2026-07-18T13:04:19.049952,15.12715212,.00066614,97.4048,241.6086,246.3909,113.6624,0,U,43767,999,41714,.11843557E-3,.2011E-4,0
