POLYITAN-1              
1 40042U 14033AJ  26199.04085337  .00010956  00000+0  33245-3 0  9998
2 40042  98.0931 228.2449 0007650  55.8959 304.3007 15.34281566658324
TIGRISAT                
1 40043U 14033AK  26199.37617711  .00000693  00000+0  85549-4 0  9994
2 40043  97.7869 348.6813 0048362 333.7651  26.1115 14.85254459650254
AEROCUBE 6A             
1 40045U 14033AM  26199.41310150  .00003270  00000+0  27586-3 0  9998
2 40045  97.7261   6.0382 0036149 269.8271  89.8809 14.98364278651291
AEROCUBE 6B             
1 40046U 14033AN  26198.98476593  .00002592  00000+0  21135-3 0  9994
2 40046  97.7206   5.4660 0038128 260.2360  99.4557 14.99812735651379
CANX-4                  
1 40055U 14034C   26199.22457982  .00000384  00000+0  56503-4 0  9999
2 40055  98.3078  75.6714 0011367 271.9633  88.0277 14.81314034649123
CANX-5                  
1 40056U 14034D   26199.62793569  .00000363  00000+0  53855-4 0  9992
2 40056  98.3080  76.1348 0011373 270.7559  89.2349 14.81331659639996
UKUBE-1                 
1 40074U 14037F   26199.30162791  .00004593  00000+0  25748-3 0  9995
2 40074  98.4246 205.8544 0003190  82.4039 277.7553 15.13977056653269
BRITE-PL2 (HEWELIUSZ)   
1 40119U 14049B   26199.30252615  .00000588  00000+0  59605-4 0  9993
2 40119  97.9120 311.5482 0014032  12.0848 348.0705 14.94691030646091
AEROCUBE 5C             
1 40965U 15058B   26199.28196863  .00001770  00000+0  16393-3 0  9992
2 40965  64.7649 165.8439 0132548  51.2806 310.0068 14.91588011370290
AEROCUBE 7              
1 40966U 15058C   26199.58992798  .00002608  00000+0  21398-3 0  9999
2 40966  64.7617 146.4389 0122296  49.4620 311.7067 14.95932772370655
FOX-1A (AO-85)          
1 40967U 15058D   26199.33967264  .00001647  00000+0  15555-3 0  9993
2 40967  64.7725 182.1599 0132623  44.6185 316.5509 14.91099552118216
SINOD-D 1               
1 40968U 15058E   26199.29679198  .00002745  00000+0  22387-3 0  9996
2 40968  64.7739 161.4732 0121321  40.9859 320.0295 14.96105749121319
SNAP-3 ALICE            
1 40970U 15058G   26198.86564696  .00096808  00000+0  85474-3 0  9996
2 40970  64.7499 357.2559 0025192 346.5767  13.4709 15.67750448121683
LMRST-SAT               
1 40971U 15058H   26199.37007315  .00001603  00000+0  15279-3 0  9999
2 40971  64.7733 178.4631 0134159  46.6043 314.6146 14.90714583118208
SNAP-3 EDDIE            
1 40972U 15058J   26198.83083352  .00102609  00000+0  85238-3 0  9995
2 40972  64.7410 347.8654 0026357 349.2904  10.7681 15.69169555123828
PROPCUBE 3              
1 40973U 15058K   26199.32865881  .00002295  00000+0  19599-3 0  9993
2 40973  64.7677 155.2241 0126018  47.8120 313.3610 14.94431129119457
BISONSAT                
1 40974U 15058L   26199.61881899  .00006973  00000+0  33163-3 0  9993
2 40974  64.7580  71.9539 0082453  34.4036 326.2388 15.16985663120388
SNAP-3 JIMI             
1 40975U 15058M   26199.20686919  .00003747  00000+0  25951-3 0  9997
2 40975  64.7647 121.6022 0108079  43.1716 317.7811 15.02634025118884
PROPCUBE 1 (FLORA)      
1 40976U 15058N   26199.28652734  .00001347  00000+0  13604-3 0  9990
2 40976  64.7717 198.8406 0132710  48.9109 312.3373 14.89337354120890
SINOD-D 3               
1 40977U 15058P   26199.63305094  .00002208  00000+0  19245-3 0  9998
2 40977  64.7709 177.6086 0121355  45.8119 315.2888 14.94190037119455
RAVAN                   
1 41849U 16067B   26199.22896946  .00034025  00000+0  45991-3 0  9993
2 41849  97.9830  92.4570 0002633 202.8741 157.2396 15.57683574532520
CELTEE 1                
1 41850U 16067C   26199.61188932  .00002449  00000+0  11748-3 0  9995
2 41850  98.0628  68.3217 0002401 105.5139 254.6359 15.19959377530650
OPTICUBE 04             
1 41851U 16067D   26199.09751852  .00000928  00000+0  61749-4 0  9992
2 41851  98.0673  52.9918 0015955  18.5232 341.6573 15.09778428529831
AEROCUBE 8D             
1 41852U 16067E   26199.59324212  .00003806  00000+0  15676-3 0  9999
2 41852  98.0633  72.1560 0004387  48.3639 311.7972 15.24796864530850
AEROCUBE 8C             
1 41853U 16067F   26199.15373570  .00003703  00000+0  15150-3 0  9996
2 41853  98.0510  68.8712 0003964 329.8363  30.2644 15.25047561530782
CORVUS BC2              
1 42846U 17042X   26199.41495331  .00001184  00000+0  84157-4 0  9997
2 42846  97.4094 359.5594 0013123  12.1105 348.0435 15.06464802491769
CORVUS BC1              
1 42847U 17042Y   26199.33971893  .00001649  00000+0  11518-3 0  9997
2 42847  97.4125   0.3212 0011324 348.7981  11.2993 15.06629317491788
MAKERSAT 0              
1 43016U 17073D   26199.58482991  .00010616  00000+0  27996-3 0  9994
2 43016  97.4572  82.3624 0105621 160.2361 200.3022 15.33085965471274
SIRION PATHFINDER-2     
1 43759U 18099B   26199.56144089  .00002202  00000+0  12207-3 0  9999
2 43759  97.4233 247.8754 0008823 179.5696 180.5545 15.14791883417376
CORVUS BC4              
1 43767U 18099K   26199.54466493  .00002011  00000+0  11844-3 0  9996
2 43767  97.4048 241.6086 0006661 246.3909 113.6624 15.12715212417147
